GLOBALSTAR M068         
1 32266U 07048D   25176.53014689 -.00000127  00000+0 -12809-3 0  9999
2 32266  51.9893 276.8260 0001562 144.9351 227.9289 12.62824660818618
GLOBALSTAR M079         
1 37188U 10054A   25176.59435782 -.00000117  00000+0 -76467-4 0  9995
2 37188  52.0035 114.1918 0000566   6.6403 163.9433 12.62265174678191
GLOBALSTAR M074         
1 37189U 10054B   25177.14093749 -.00000120  00000+0 -92226-4 0  9996
2 37189  52.0011 111.8508 0000665  38.5467 335.4842 12.62256900678264
GLOBALSTAR M076         
1 37190U 10054C   25176.56835487 -.00000126  00000+0 -12660-3 0  9995
2 37190  52.0020 113.7641 0000714  25.3340 146.4014 12.62263245677837
GLOBALSTAR M077         
1 37191U 10054D   25176.47612891 -.00000098  00000+0  33488-4 0  9997
2 37191  52.0078  70.9043 0000742  57.4940 115.0545 12.62268520678196
GLOBALSTAR M075         
1 37192U 10054E   25176.66057613 -.00000110  00000+0 -35565-4 0  9998
2 37192  51.9923 155.7364 0000217  32.0957 138.8151 12.62265905676914
GLOBALSTAR M073         
1 37193U 10054F   25176.95516434 -.00000092  00000+0  63708-4 0  9990
2 37193  52.0071  68.6651 0000788  49.8319  20.3417 12.62272108678996
GLOBALSTAR M083         
1 37739U 11033A   25176.27819624 -.00000095  00000+0  49215-4 0  9996
2 37739  51.9877  19.4475 0000655  83.9820  87.5674 12.62263995647878
GLOBALSTAR M088         
1 37740U 11033B   25176.61298479 -.00000065  00000+0  21409-3 0  9996
2 37740  52.0056 283.9890 0000697 135.0596 239.2097 12.62265928643469
GLOBALSTAR M091         
1 37741U 11033C   25176.46757102 -.00000069  00000+0  19280-3 0  9991
2 37741  51.9982 247.9250 0000496 174.9076 198.6010 12.62269060644238
GLOBALSTAR M085         
1 37742U 11033D   25177.09280645 -.00000096  00000+0  46012-4 0  9999
2 37742  51.9836 197.0501 0000250 223.7315 172.8617 12.62269614645310
GLOBALSTAR M081         
1 37743U 11033E   25177.03712969 -.00000085  00000+0  10744-3 0  9993
2 37743  51.9934 200.0149 0000160 283.1083  98.9642 12.62266860645344
GLOBALSTAR M089         
1 37744U 11033F   25176.31028456 -.00000114  00000+0 -56516-4 0  9997
2 37744  51.9907 156.4514 0000480  42.3121  96.5687 12.62265024645713
GLOBALSTAR M084         
1 38040U 11080A   25177.04135625 -.00000093  00000+0  60964-4 0  9994
2 38040  52.0029  21.5189 0001127  73.3205  88.3966 12.62266843624060
GLOBALSTAR M080         
1 38041U 11080B   25176.82172949 -.00000089  00000+0  82659-4 0  9990
2 38041  52.0080  23.7824 0000856 114.3355 258.4249 12.62263583623889
GLOBALSTAR M082         
1 38042U 11080C   25176.44394306 -.00000102  00000+0  12593-4 0  9998
2 38042  52.0093 340.3941 0000817 130.2826 255.6162 12.62266866624543
GLOBALSTAR M092         
1 38043U 11080D   25176.44960391 -.00000107  00000+0 -18547-4 0  9993
2 38043  52.0094  70.7530 0000722  63.1650 108.3784 12.62264326622997
GLOBALSTAR M090         
1 38044U 11080E   25176.70491786 -.00000110  00000+0 -32981-4 0  9992
2 38044  52.0141 333.4380 0000689 114.3473 259.2575 12.62273661624692
GLOBALSTAR M086         
1 38045U 11080F   25176.73126891 -.00000084  00000+0  11093-3 0  9997
2 38045  51.9914 333.8660 0000911  26.7286 347.0808 12.62271921624647
GLOBALSTAR M097         
1 39072U 13005A   25176.59642340 -.00000076  00000+0  15519-3 0  9991
2 39072  52.0038 248.8329 0000259 157.9976 202.0902 12.62272536571876
GLOBALSTAR M093         
1 39073U 13005B   25176.57009483 -.00000073  00000+0  17097-3 0  9995
2 39073  51.9797 242.2027 0000282 174.1986 185.8884 12.62265745571947
GLOBALSTAR M094         
1 39074U 13005C   25176.96609759 -.00000129  00000+0 -14065-3 0  9996
2 39074  51.9931 155.3859 0000340 329.3434  30.7412 12.62262855573487
GLOBALSTAR M096         
1 39075U 13005D   25176.34578193 -.00000084  00000+0  10775-3 0  9999
2 39075  52.0047 205.7968 0000281 234.3748 125.7092 12.62265583572328
GLOBALSTAR M078         
1 39076U 13005E   25176.55691883 -.00000143  00000+0 -21828-3 0  9993
2 39076  51.9886 289.6533 0001153 167.1406 192.9491 12.62257388570972
GLOBALSTAR M095         
1 39077U 13005F   25176.58320475 -.00000082  00000+0  12256-3 0  9999
2 39077  51.9809 286.7649 0000688 167.9575 192.1308 12.62263774570831
GLOBALSTAR M087         
1 52888U 22064A   25177.08901815 -.00000096  00000+0  43205-4 0  9992
2 52888  52.0004  66.6982 0000578  61.3774 298.7151 12.62263540146497
